{"MEAN_MOTION":1.00273272,"ECCENTRICITY":0.0005013,"INCLINATION":3.0539,"RA_OF_ASC_NODE":81.7939,"MEAN_ANOMALY":150.1602,"NORAD_CAT_ID":23581,"BSTAR":0.0001,"USER_DEFINED_EPOCH_TIMESTAMP":2454195.9407572453}